     3.02           N: GNSS NAV DATA    E: Galileo          RINEX VERSION / TYPE
BINEX2RINEX  2.10   GSI, JAPAN          20240102 17:54:55UTCPGM / RUN BY / DATE
                                                            END OF HEADER
E09 2024 01 01 01 30 00-2.832851605490D-04-1.362820967188D-11 0.000000000000D+00
     2.500000000000D+01-1.295625000000D+02 2.779401487514D-09 5.025323100421D-01
    -5.997717380524D-06 1.739524304867D-04 1.051276922226D-05 5.440618000031D+03
     9.180000000000D+04-3.725290298462D-08 4.684381323056D-01 3.725290298462D-08
     9.663264849768D-01 1.165312500000D+02 3.823950196703D-01-5.395581890500D-09
    -7.571743964957D-11 5.130000000000D+02 2.295000000000D+03                   
     3.119999885559D+00 0.000000000000D+00 1.396983861923D-09 1.629814505577D-09
     9.281500000000D+04                                                         
E31 2024 01 01 01 40 00-1.282908488065D-05-8.242295734817D-13 0.000000000000D+00
     2.600000000000D+01 1.562500000000D+00 3.358354174646D-09-1.423091143973D-01
     1.322478055954D-07 1.999525120482D-04 5.260109901428D-06 5.440606344223D+03
     9.240000000000D+04 1.117587089539D-08 2.568237925075D+00-1.676380634308D-08
     9.672909532194D-01 2.300937500000D+02-2.248225392526D-01-5.665235979818D-09
    -1.707213969457D-10 5.160000000000D+02 2.295000000000D+03                   
     3.119999885559D+00 0.000000000000D+00 4.423782229424D-09 4.889443516731D-09
     9.306400000000D+04                                                         
E04 2024 01 01 01 40 00-2.931585768238D-04-8.796519068710D-12 0.000000000000D+00
     2.600000000000D+01-1.138750000000D+02 2.986195815613D-09-2.311015925535D+00
    -5.355104804039D-06 9.747780859470D-05 9.858980774879D-06 5.440624774933D+03
     9.240000000000D+04 2.235174179077D-08 4.692270167315D-01-2.421438694000D-08
     9.604495934150D-01 1.316875000000D+02-2.249443036297D+00-5.449869866098D-09
    -9.607543049875D-11 5.160000000000D+02 2.295000000000D+03                   
     3.119999885559D+00 0.000000000000D+00-2.793967723846D-09-3.026798367500D-09
     9.306400000000D+04                                                         
E21 2024 01 01 01 40 00-5.716387531720D-04-1.847411112976D-12 0.000000000000D+00
     2.600000000000D+01 1.412500000000D+01 3.320495454821D-09 4.372455604155D-01
     4.991888999939D-07 2.260764595121D-04 5.446374416351D-06 5.440611513138D+03
     9.240000000000D+04 3.539025783539D-08 2.568301617603D+00 2.235174179077D-08
     9.673148909479D-01 2.251875000000D+02 7.564432183363D-01-5.677379342781D-09
    -1.371485699313D-10 5.160000000000D+02 2.295000000000D+03                   
     3.119999885559D+00 0.000000000000D+00 3.492459654808D-09 3.725290298462D-09
     9.306400000000D+04                                                         
E09 2024 01 01 01 40 00-2.832934260368D-04-1.364242052659D-11 0.000000000000D+00
     2.600000000000D+01-1.297187500000D+02 2.784044538058D-09 5.774934963850D-01
    -6.003305315971D-06 1.739016734064D-04 1.048110425472D-05 5.440617778778D+03
     9.240000000000D+04-3.911554813385D-08 4.684349285150D-01 2.793967723846D-08
     9.663264674218D-01 1.174375000000D+02 3.818186928526D-01-5.395224732766D-09
    -8.178912113090D-11 5.130000000000D+02 2.295000000000D+03                   
     3.119999885559D+00 0.000000000000D+00 1.396983861923D-09 1.629814505577D-09
     9.308500000000D+04                                                         
E19 2024 01 01 01 40 00-9.022162994370D-04 7.540279511886D-11 0.000000000000D+00
     2.600000000000D+01-1.113750000000D+02 2.923693212129D-09-1.144100298747D+00
    -5.291774868965D-06 1.454737503082D-04 9.382143616676D-06 5.440627038956D+03
     9.240000000000D+04 5.587935447693D-09 4.735311001967D-01 3.539025783539D-08
     9.660074795976D-01 1.428750000000D+02-2.532836567130D+00-5.468084910542D-09
    -6.321691895271D-11 5.130000000000D+02 2.295000000000D+03                   
     3.119999885559D+00 0.000000000000D+00-3.259629011154D-09-3.026798367500D-09
     9.308500000000D+04                                                         
E31 2024 01 01 01 50 00-1.282955054194D-05-8.242295734817D-13 0.000000000000D+00
     2.700000000000D+01 2.031250000000D+00 3.354782597304D-09-6.819158120736D-02
     1.527369022369D-07 2.000544918701D-04 5.224719643593D-06 5.440606573105D+03
     9.300000000000D+04 1.117587089539D-08 2.568234526717D+00-1.676380634308D-08
     9.672908537410D-01 2.308750000000D+02-2.245541976522D-01-5.664878822084D-09
    -1.707213969457D-10 5.160000000000D+02 2.295000000000D+03                   
     3.119999885559D+00 0.000000000000D+00 4.423782229424D-09 4.889443516731D-09
     9.366400000000D+04                                                         
E04 2024 01 01 01 50 00-2.931637573056D-04-8.796519068710D-12 0.000000000000D+00
     2.700000000000D+01-1.122500000000D+02 2.997267705374D-09-2.238699801873D+00
    -5.299225449562D-06 9.749655146152D-05 9.860843420029D-06 5.440624374390D+03
     9.300000000000D+04 2.793967723846D-08 4.692237895343D-01-1.862645149231D-08
     9.604495334354D-01 1.316250000000D+02-2.247374535964D+00-5.453798601174D-09
    -9.928985010651D-11 5.160000000000D+02 2.295000000000D+03                   
     3.119999885559D+00 0.000000000000D+00-2.793967723846D-09-3.026798367500D-09
     9.366400000000D+04                                                         
E21 2024 01 01 01 50 00-5.716397427022D-04-1.833200258261D-12 0.000000000000D+00
     2.700000000000D+01 1.406250000000D+01 3.315495246542D-09 5.116088448248D-01
     5.066394805908D-07 2.260783221573D-04 5.431473255157D-06 5.440611520767D+03
     9.300000000000D+04 3.166496753693D-08 2.568298188523D+00 2.607703208923D-08
     9.673147958582D-01 2.251250000000D+02 7.564655322258D-01-5.676307869578D-09
    -1.342913080577D-10 5.160000000000D+02 2.295000000000D+03                   
     3.119999885559D+00 0.000000000000D+00 3.492459654808D-09 3.725290298462D-09
     9.366400000000D+04                                                         
E09 2024 01 01 01 50 00-2.833016333170D-04-1.364242052659D-11 0.000000000000D+00
     2.700000000000D+01-1.297187500000D+02 2.790830535008D-09 6.528367486539D-01
    -6.005167961121D-06 1.738347345963D-04 1.042708754539D-05 5.440617422104D+03
     9.300000000000D+04-3.725290298462D-08 4.684317247244D-01 1.862645149231D-08
     9.663264440151D-01 1.188750000000D+02 3.808602620729D-01-5.395224732766D-09
    -8.750364487804D-11 5.130000000000D+02 2.295000000000D+03                   
     3.119999885559D+00 0.000000000000D+00 1.396983861923D-09 1.629814505577D-09
     9.368500000000D+04                                                         
E19 2024 01 01 01 50 00-9.021710720845D-04 7.540279511886D-11 0.000000000000D+00
     2.700000000000D+01-1.109687500000D+02 2.920478792521D-09-1.068898016190D+00
    -5.273148417473D-06 1.456880709156D-04 9.287148714066D-06 5.440627525330D+03
     9.300000000000D+04 1.862645149231D-09 4.735278276490D-01 3.539025783539D-08
     9.660074283954D-01 1.448125000000D+02-2.533653998939D+00-5.470585014681D-09
    -6.321691895271D-11 5.130000000000D+02 2.295000000000D+03                   
     3.119999885559D+00 0.000000000000D+00-3.259629011154D-09-3.026798367500D-09
     9.368500000000D+04                                                         
E31 2024 01 01 02 00 00-1.283001620322D-05-8.100187187665D-13 0.000000000000D+00
     2.800000000000D+01 2.656250000000D+00 3.351568177696D-09 5.865261363107D-03
     1.806765794754D-07 2.001594984904D-04 5.189329385757D-06 5.440606819153D+03
     9.360000000000D+04 1.117587089539D-08 2.568231126895D+00-1.676380634308D-08
     9.672907527996D-01 2.316562500000D+02-2.242251698212D-01-5.664878822084D-09
    -1.710785546799D-10 5.160000000000D+02 2.295000000000D+03                   
     3.119999885559D+00 0.000000000000D+00 4.656612873077D-09 5.122274160385D-09
     9.426400000000D+04                                                         
E04 2024 01 01 02 00 00-2.931689959951D-04-8.782308213995D-12 0.000000000000D+00
     2.800000000000D+01-1.111562500000D+02 3.006553806463D-09-2.165722295872D+00
    -5.265697836876D-06 9.749794844538D-05 9.870156645775D-06 5.440624103546D+03
     9.360000000000D+04 3.166496753693D-08 4.692205594111D-01-1.303851604462D-08
     9.604494690670D-01 1.314062500000D+02-2.245967347749D+00-5.457727336250D-09
    -1.021471119801D-10 5.160000000000D+02 2.295000000000D+03                   
     3.119999885559D+00 0.000000000000D+00-3.259629011154D-09-3.725290298462D-09
     9.426400000000D+04                                                         
E21 2024 01 01 02 00 00-5.716408486478D-04-1.833200258261D-12 0.000000000000D+00
     2.800000000000D+01 1.412500000000D+01 3.311566511466D-09 5.860382487425D-01
     5.196779966354D-07 2.260726178065D-04 5.414709448814D-06 5.440611497879D+03
     9.360000000000D+04 2.793967723846D-08 2.568294757980D+00 2.980232238770D-08
     9.673147051573D-01 2.251875000000D+02 7.564217061260D-01-5.675236396376D-09
    -1.314340461842D-10 5.160000000000D+02 2.295000000000D+03                   
     3.119999885559D+00 0.000000000000D+00 2.561137080193D-09 2.561137080193D-09
     9.426400000000D+04                                                         
E09 2024 01 01 02 00 00-2.833098405972D-04-1.364242052659D-11 0.000000000000D+00
     2.800000000000D+01-1.293750000000D+02 2.800116636097D-09 7.285424418027D-01
    -5.992129445076D-06 1.737643033266D-04 1.035258173943D-05 5.440616947174D+03
     9.360000000000D+04-3.539025783539D-08 4.684285209338D-01 9.313225746155D-09
     9.663264132939D-01 1.208125000000D+02 3.795393670066D-01-5.395939048234D-09
    -9.250385315679D-11 5.130000000000D+02 2.295000000000D+03                   
     3.119999885559D+00 0.000000000000D+00 1.629814505577D-09 1.629814505577D-09
     9.428500000000D+04                                                         
